*******************************************************************************
Ephemeris / WWW_USER Mon Mar 10 06:49:41 2025 Pasadena, USA      / Horizons    
*******************************************************************************
Target body name: (2018 VS8)                      {source: JPL#8}
Center body name: Earth (399)                     {source: DE441}
Center-site name: Mauna Kea
*******************************************************************************
Start time      : A.D. 2018-Aug-27 04:51:00.0000 UT      
Stop  time      : A.D. 2018-Aug-27 15:56:00.0000 UT      
Step-size       : 1 minutes
*******************************************************************************
Target pole/equ : undefined
Target radii    : undefined                                                    
Center geodetic : 204.5278, 19.8260847, 4.21024   {E-lon(deg),Lat(deg),Alt(km)}
Center cylindric: 204.5278, 6006.35451, 2151.0229 {E-lon(deg),Dxy(km),Dz(km)}
Center pole/equ : ITRF93                          {East-longitude positive}
Center radii    : 6378.137, 6378.137, 6356.752 km {Equator_a, b, pole_c}       
Target primary  : Sun
Vis. interferer : MOON (R_eq= 1737.400) km        {source: DE441}
Rel. light bend : Sun                             {source: DE441}
Rel. lght bnd GM: 1.3271E+11 km^3/s^2                                          
Small-body perts: Yes                             {source: SB441-N16}
Atmos refraction: NO (AIRLESS)
RA format       : HMS
Time format     : CAL 
Calendar mode   : Mixed Julian/Gregorian
RTS-only print  : NO       
EOP file        : eop.250307.p250603                                           
EOP coverage    : DATA-BASED 1962-JAN-20 TO 2025-MAR-07. PREDICTS-> 2025-JUN-02
Units conversion: 1 au= 149597870.700 km, c= 299792.458 km/s, 1 day= 86400.0 s 
Table cut-offs 1: Elevation (-90.0deg=NO ),Airmass (>38.000=NO), Daylight (YES)
Table cut-offs 2: Solar elongation (  0.0,180.0=NO ),Local Hour Angle( 0.0=NO )
Table cut-offs 3: RA/DEC angular rate (     0.0=NO )                           
*******************************************************************************
Initial IAU76/J2000 heliocentric ecliptic osculating elements (au, days, deg.):
  EPOCH=  2458433.5 ! 2018-Nov-11.00 (TDB)         Residual RMS= .33953        
   EC= .5263784885368822   QR= .9373233613851428   TP= 2458465.1575556668      
   OM= 53.89076972236643   W=  33.71683445616237   IN= 3.430463171034721       
  Equivalent ICRF heliocentric cartesian coordinates (au, au/d):
   X= 6.888560011548344E-01  Y= 6.928655939663307E-01  Z= 2.929974091538562E-01
  VX=-1.813811938800288E-02 VY= 8.693003909227039E-03 VZ= 5.111678677431928E-03
Asteroid physical parameters (km, seconds, rotational period in hours):        
   GM= n.a.                RAD= n.a.               ROTPER= n.a.                
   H= 27.2                 G= .150                 B-V= n.a.                   
                           ALBEDO= n.a.            STYP= n.a.                  
*******************************************************************************
 Date__(UT)__HR:MN     R.A._________(ICRF)_________DEC
******************************************************
$$SOE
 2018-Aug-27 08:57  m  01 07 30.941078 -00 56 48.18310
 2018-Aug-27 08:58  m  01 07 30.976144 -00 56 48.15655
 2018-Aug-27 08:59  m  01 07 31.011196 -00 56 48.13001
 2018-Aug-27 09:00  m  01 07 31.046232 -00 56 48.10347
 2018-Aug-27 09:01  m  01 07 31.081253 -00 56 48.07693
 2018-Aug-27 09:02  m  01 07 31.116259 -00 56 48.05040
 2018-Aug-27 09:03  m  01 07 31.151250 -00 56 48.02386
 2018-Aug-27 09:04  m  01 07 31.186226 -00 56 47.99734
 2018-Aug-27 09:05  m  01 07 31.221187 -00 56 47.97081
 2018-Aug-27 09:06  m  01 07 31.256133 -00 56 47.94429
 2018-Aug-27 09:07  m  01 07 31.291065 -00 56 47.91777
 2018-Aug-27 09:08  m  01 07 31.325981 -00 56 47.89125
 2018-Aug-27 09:09  m  01 07 31.360883 -00 56 47.86473
 2018-Aug-27 09:10  m  01 07 31.395769 -00 56 47.83822
 2018-Aug-27 09:11  m  01 07 31.430642 -00 56 47.81171
 2018-Aug-27 09:12  m  01 07 31.465499 -00 56 47.78521
 2018-Aug-27 09:13  m  01 07 31.500342 -00 56 47.75870
 2018-Aug-27 09:14  m  01 07 31.535170 -00 56 47.73220
 2018-Aug-27 09:15  m  01 07 31.569983 -00 56 47.70570
 2018-Aug-27 09:16  m  01 07 31.604782 -00 56 47.67921
 2018-Aug-27 09:17  m  01 07 31.639566 -00 56 47.65272
 2018-Aug-27 09:18  m  01 07 31.674336 -00 56 47.62623
 2018-Aug-27 09:19  m  01 07 31.709092 -00 56 47.59974
 2018-Aug-27 09:20  m  01 07 31.743833 -00 56 47.57326
 2018-Aug-27 09:21  m  01 07 31.778559 -00 56 47.54677
 2018-Aug-27 09:22  m  01 07 31.813272 -00 56 47.52029
 2018-Aug-27 09:23  m  01 07 31.847970 -00 56 47.49382
 2018-Aug-27 09:24  m  01 07 31.882653 -00 56 47.46734
 2018-Aug-27 09:25  m  01 07 31.917323 -00 56 47.44087
 2018-Aug-27 09:26  m  01 07 31.951978 -00 56 47.41440
 2018-Aug-27 09:27  m  01 07 31.986620 -00 56 47.38794
 2018-Aug-27 09:28  m  01 07 32.021247 -00 56 47.36147
 2018-Aug-27 09:29  m  01 07 32.055860 -00 56 47.33501
 2018-Aug-27 09:30  m  01 07 32.090459 -00 56 47.30855
 2018-Aug-27 09:31  m  01 07 32.125044 -00 56 47.28210
 2018-Aug-27 09:32  m  01 07 32.159615 -00 56 47.25565
 2018-Aug-27 09:33  m  01 07 32.194173 -00 56 47.22919
 2018-Aug-27 09:34  m  01 07 32.228716 -00 56 47.20275
 2018-Aug-27 09:35  m  01 07 32.263246 -00 56 47.17630
 2018-Aug-27 09:36  m  01 07 32.297762 -00 56 47.14986
 2018-Aug-27 09:37  m  01 07 32.332264 -00 56 47.12342
 2018-Aug-27 09:38  m  01 07 32.366752 -00 56 47.09698
 2018-Aug-27 09:39  m  01 07 32.401227 -00 56 47.07054
 2018-Aug-27 09:40  m  01 07 32.435688 -00 56 47.04411
 2018-Aug-27 09:41  m  01 07 32.470136 -00 56 47.01768
 2018-Aug-27 09:42  m  01 07 32.504570 -00 56 46.99125
 2018-Aug-27 09:43  m  01 07 32.538991 -00 56 46.96482
 2018-Aug-27 09:44  m  01 07 32.573399 -00 56 46.93840
 2018-Aug-27 09:45  m  01 07 32.607793 -00 56 46.91198
 2018-Aug-27 09:46  m  01 07 32.642173 -00 56 46.88556
 2018-Aug-27 09:47  m  01 07 32.676541 -00 56 46.85914
 2018-Aug-27 09:48  m  01 07 32.710895 -00 56 46.83272
 2018-Aug-27 09:49  m  01 07 32.745236 -00 56 46.80631
 2018-Aug-27 09:50  m  01 07 32.779564 -00 56 46.77990
 2018-Aug-27 09:51  m  01 07 32.813878 -00 56 46.75349
 2018-Aug-27 09:52  m  01 07 32.848180 -00 56 46.72709
 2018-Aug-27 09:53  m  01 07 32.882469 -00 56 46.70068
 2018-Aug-27 09:54  m  01 07 32.916745 -00 56 46.67428
 2018-Aug-27 09:55  m  01 07 32.951008 -00 56 46.64788
 2018-Aug-27 09:56  m  01 07 32.985258 -00 56 46.62149
 2018-Aug-27 09:57  m  01 07 33.019495 -00 56 46.59509
 2018-Aug-27 09:58  m  01 07 33.053719 -00 56 46.56870
 2018-Aug-27 09:59  m  01 07 33.087931 -00 56 46.54231
 2018-Aug-27 10:00  m  01 07 33.122130 -00 56 46.51592
 2018-Aug-27 10:01  m  01 07 33.156317 -00 56 46.48953
 2018-Aug-27 10:02  m  01 07 33.190491 -00 56 46.46315
 2018-Aug-27 10:03  m  01 07 33.224652 -00 56 46.43677
 2018-Aug-27 10:04  m  01 07 33.258801 -00 56 46.41039
 2018-Aug-27 10:05  m  01 07 33.292937 -00 56 46.38401
 2018-Aug-27 10:06  m  01 07 33.327061 -00 56 46.35764
 2018-Aug-27 10:07  m  01 07 33.361173 -00 56 46.33126
 2018-Aug-27 10:08  m  01 07 33.395273 -00 56 46.30489
 2018-Aug-27 10:09  m  01 07 33.429360 -00 56 46.27852
 2018-Aug-27 10:10  m  01 07 33.463435 -00 56 46.25216
 2018-Aug-27 10:11  m  01 07 33.497498 -00 56 46.22579
 2018-Aug-27 10:12  m  01 07 33.531549 -00 56 46.19943
 2018-Aug-27 10:13  m  01 07 33.565588 -00 56 46.17307
 2018-Aug-27 10:14  m  01 07 33.599616 -00 56 46.14671
 2018-Aug-27 10:15  m  01 07 33.633631 -00 56 46.12035
 2018-Aug-27 10:16  m  01 07 33.667634 -00 56 46.09399
 2018-Aug-27 10:17  m  01 07 33.701625 -00 56 46.06764
 2018-Aug-27 10:18  m  01 07 33.735605 -00 56 46.04129
 2018-Aug-27 10:19  m  01 07 33.769573 -00 56 46.01494
 2018-Aug-27 10:20  m  01 07 33.803530 -00 56 45.98859
 2018-Aug-27 10:21  m  01 07 33.837474 -00 56 45.96225
 2018-Aug-27 10:22  m  01 07 33.871408 -00 56 45.93590
 2018-Aug-27 10:23  m  01 07 33.905329 -00 56 45.90956
 2018-Aug-27 10:24  m  01 07 33.939240 -00 56 45.88322
 2018-Aug-27 10:25  m  01 07 33.973139 -00 56 45.85688
 2018-Aug-27 10:26  m  01 07 34.007026 -00 56 45.83055
 2018-Aug-27 10:27  m  01 07 34.040903 -00 56 45.80421
 2018-Aug-27 10:28  m  01 07 34.074768 -00 56 45.77788
 2018-Aug-27 10:29  m  01 07 34.108622 -00 56 45.75155
 2018-Aug-27 10:30  m  01 07 34.142465 -00 56 45.72522
 2018-Aug-27 10:31  m  01 07 34.176297 -00 56 45.69890
 2018-Aug-27 10:32  m  01 07 34.210118 -00 56 45.67257
 2018-Aug-27 10:33  m  01 07 34.243927 -00 56 45.64625
 2018-Aug-27 10:34  m  01 07 34.277727 -00 56 45.61993
 2018-Aug-27 10:35  m  01 07 34.311515 -00 56 45.59361
 2018-Aug-27 10:36  m  01 07 34.345292 -00 56 45.56729
 2018-Aug-27 10:37  m  01 07 34.379059 -00 56 45.54097
 2018-Aug-27 10:38  m  01 07 34.412815 -00 56 45.51466
 2018-Aug-27 10:39  m  01 07 34.446561 -00 56 45.48834
 2018-Aug-27 10:40  m  01 07 34.480296 -00 56 45.46203
 2018-Aug-27 10:41  m  01 07 34.514020 -00 56 45.43572
 2018-Aug-27 10:42  m  01 07 34.547734 -00 56 45.40941
 2018-Aug-27 10:43  m  01 07 34.581438 -00 56 45.38311
 2018-Aug-27 10:44  m  01 07 34.615131 -00 56 45.35680
 2018-Aug-27 10:45  m  01 07 34.648814 -00 56 45.33050
 2018-Aug-27 10:46  m  01 07 34.682487 -00 56 45.30420
 2018-Aug-27 10:47  m  01 07 34.716150 -00 56 45.27790
 2018-Aug-27 10:48  m  01 07 34.749803 -00 56 45.25160
 2018-Aug-27 10:49  m  01 07 34.783446 -00 56 45.22531
 2018-Aug-27 10:50  m  01 07 34.817078 -00 56 45.19901
 2018-Aug-27 10:51  m  01 07 34.850701 -00 56 45.17272
 2018-Aug-27 10:52  m  01 07 34.884314 -00 56 45.14643
 2018-Aug-27 10:53  m  01 07 34.917918 -00 56 45.12014
 2018-Aug-27 10:54  m  01 07 34.951511 -00 56 45.09385
 2018-Aug-27 10:55  m  01 07 34.985095 -00 56 45.06756
 2018-Aug-27 10:56  m  01 07 35.018669 -00 56 45.04128
 2018-Aug-27 10:57  m  01 07 35.052234 -00 56 45.01499
 2018-Aug-27 10:58  m  01 07 35.085789 -00 56 44.98871
 2018-Aug-27 10:59  m  01 07 35.119335 -00 56 44.96243
